1 52822U          19328.51805556  .00000000  00000-0  00000-0 0 00000
2 52822 097.6180 191.5080 0000000 000.0000 126.7510 15.01914300000000
1 52822U          19328.92152778  .00000000  00000-0  00000-0 0 00000
2 52822 097.6170 191.9050 0000000 000.0000 145.5010 15.01914300000000
1 52822U          19329.22430556  .00000000  00000-0  00000-0 0 00000
2 52822 097.6170 192.2040 0000000 000.0000 340.5010 15.01914300000000
1 52822U          19329.63819444  .00000000  00000-0  00000-0 0 00000
2 52822 097.6160 192.6120 0000000 000.0000 055.5010 15.01914300000000
1 52822U          19329.91458333  .00000000  00000-0  00000-0 0 00000
2 52822 097.6150 192.8840 0000000 000.0000 108.0010 15.01914300000000
1 52822U          19330.27638889  .00000000  00000-0  00000-0 0 00000
2 52822 097.6150 193.2410 0000000 000.0000 261.7510 15.01914300000000
1 52822U          19330.52361111  .00000000  00000-0  00000-0 0 00000
2 52822 097.6140 193.4840 0000000 000.0000 156.7510 15.01914300000000
1 52822U          19330.84930556  .00000000  00000-0  00000-0 0 00000
2 52822 097.6140 193.8050 0000000 000.0000 115.5010 15.01914300000000
1 52822U          19331.21180556  .00000000  00000-0  00000-0 0 00000
2 52822 097.6130 194.1620 0000000 000.0000 273.0000 15.01914300000000
1 52822U          19331.64097222  .00000000  00000-0  00000-0 0 00000
2 52822 097.6120 194.5850 0000000 000.0000 070.5000 15.01914300000000
1 52822U          19331.82916667  .00000000  00000-0  00000-0 0 00000
2 52822 097.6120 194.7710 0000000 000.0000 006.7500 15.01914300000000
1 52822U          19332.16111111  .00000000  00000-0  00000-0 0 00000
2 52822 097.6110 195.0980 0000000 000.0000 359.2500 15.01914300000000
1 52822U          19332.61527778  .00000000  00000-0  00000-0 0 00000
2 52822 097.6110 195.5460 0000000 000.0000 291.7500 15.01914300000000
1 52822U          19332.83611111  .00000000  00000-0  00000-0 0 00000
2 52822 097.6100 195.7630 0000000 000.0000 044.2500 15.01914300000000
